[{"OBJECT_NAME":"FLOCK 4G-17","OBJECT_ID":"2025-009CA","EPOCH":"2026-03-09T22:51:51.984864","MEAN_MOTION":15.27385439,"ECCENTRICITY":0.00036407,"INCLINATION":97.3966,"RA_OF_ASC_NODE":151.0229,"ARG_OF_PERICENTER":339.6132,"MEAN_ANOMALY":20.4962,"EPHEMERIS_TYPE":0,"CLASSIFICATION_TYPE":"U","NORAD_CAT_ID":62681,"ELEMENT_SET_NO":999,"REV_AT_EPOCH":12139,"BSTAR":0.00053710713,"MEAN_MOTION_DOT":0.00014342,"MEAN_MOTION_DDOT":0},{"OBJECT_NAME":"STARLINK-36087","OBJECT_ID":"2025-281G","EPOCH":"2026-03-09T03:15:47.016576","MEAN_MOTION":15.27574962,"ECCENTRICITY":0.00016866,"INCLINATION":43.0031,"RA_OF_ASC_NODE":346.3599,"ARG_OF_PERICENTER":266.0097,"MEAN_ANOMALY":94.0562,"EPHEMERIS_TYPE":0,"CLASSIFICATION_TYPE":"U","NORAD_CAT_ID":66854,"ELEMENT_SET_NO":999,"REV_AT_EPOCH":1610,"BSTAR":0.0012655263,"MEAN_MOTION_DOT":0.00034721,"MEAN_MOTION_DDOT":0}]
